start=new Date('2022-04-07T00:00:00.000Z').valueOf();
sats=[{"REF_FRAME":"TEME","NORAD_CAT_ID":"48678","BSTAR":"0.00027035000000","TLE_LINE2":"2 48678  53.0545  66.0261 0001724  63.7932 296.3234 15.06396378 47819","ELEMENT_SET_NO":"999","LAUNCH_DATE":"2021-05-26","CENTER_NAME":"EARTH","MEAN_ELEMENT_THEORY":"SGP4","EPHEMERIS_TYPE":"0","SITE":"AFETR","RCS_SIZE":"LARGE","MEAN_MOTION_DOT":"0.00003747","SEMIMAJOR_AXIS":"6925.360","COUNTRY_CODE":"US","DECAY_DATE":null,"MEAN_MOTION":"15.06396378","GP_ID":"200592877","REV_AT_EPOCH":"4781","RA_OF_ASC_NODE":"66.0261","MEAN_ANOMALY":"296.3234","PERIAPSIS":"546.031","INCLINATION":"53.0545","OBJECT_ID":"2021-044AS","FILE":"3390907","CLASSIFICATION_TYPE":"U","MEAN_MOTION_DDOT":"0.0000000000000","ARG_OF_PERICENTER":"63.7932","EPOCH":"2022-04-06T08:57:54.650880","OBJECT_TYPE":"PAYLOAD","OBJECT_NAME":"STARLINK-2615","ECCENTRICITY":"0.00017240","APOAPSIS":"548.419","PERIOD":"95.592","TIME_SYSTEM":"UTC","TLE_LINE1":"1 48678U 21044AS  22096.37354920  .00003747  00000-0  27035-3 0  9997"},{"EPOCH":"2022-04-06T10:28:08.410080","OBJECT_TYPE":"PAYLOAD","MEAN_MOTION_DDOT":"0.0000000000000","ARG_OF_PERICENTER":"60.8989","OBJECT_ID":"2021-044AT","CLASSIFICATION_TYPE":"U","FILE":"3390907","RA_OF_ASC_NODE":"65.7489","MEAN_ANOMALY":"299.2151","PERIAPSIS":"546.176","INCLINATION":"53.0548","TLE_LINE1":"1 48679U 21044AT  22096.43620845  .00001521  00000-0  12101-3 0  9993","APOAPSIS":"548.263","PERIOD":"95.592","TIME_SYSTEM":"UTC","OBJECT_NAME":"STARLINK-2648","ECCENTRICITY":"0.00015070","MEAN_MOTION_DOT":"0.00001521","MEAN_ELEMENT_THEORY":"SGP4","EPHEMERIS_TYPE":"0","SITE":"AFETR","RCS_SIZE":"LARGE","TLE_LINE2":"2 48679  53.0548  65.7489 0001507  60.8989 299.2151 15.06398071 47823","ELEMENT_SET_NO":"999","LAUNCH_DATE":"2021-05-26","CENTER_NAME":"EARTH","NORAD_CAT_ID":"48679","REF_FRAME":"TEME","BSTAR":"0.00012101000000","GP_ID":"200593129","REV_AT_EPOCH":"4782","MEAN_MOTION":"15.06398071","COUNTRY_CODE":"US","DECAY_DATE":null,"SEMIMAJOR_AXIS":"6925.354"},{"TIME_SYSTEM":"UTC","PERIOD":"95.594","APOAPSIS":"548.494","TLE_LINE1":"1 48680U 21044AU  22096.89695993 -.00003493  00000-0 -21585-3 0  9999","ECCENTRICITY":"0.00017360","OBJECT_NAME":"STARLINK-2649","ARG_OF_PERICENTER":"55.4886","MEAN_MOTION_DDOT":"0.0000000000000","OBJECT_TYPE":"PAYLOAD","EPOCH":"2022-04-06T21:31:37.337952","INCLINATION":"53.0564","PERIAPSIS":"546.089","MEAN_ANOMALY":"304.6267","RA_OF_ASC_NODE":"63.6767","FILE":"3391320","CLASSIFICATION_TYPE":"U","OBJECT_ID":"2021-044AU","MEAN_MOTION":"15.06374613","REV_AT_EPOCH":"4789","GP_ID":"200627123","SEMIMAJOR_AXIS":"6925.426","DECAY_DATE":null,"COUNTRY_CODE":"US","RCS_SIZE":"LARGE","EPHEMERIS_TYPE":"0","SITE":"AFETR","MEAN_ELEMENT_THEORY":"SGP4","MEAN_MOTION_DOT":"-0.00003493","BSTAR":"-0.00021585000000","REF_FRAME":"TEME","NORAD_CAT_ID":"48680","CENTER_NAME":"EARTH","LAUNCH_DATE":"2021-05-26","ELEMENT_SET_NO":"999","TLE_LINE2":"2 48680  53.0564  63.6767 0001736  55.4886 304.6267 15.06374613 47891"},{"EPHEMERIS_TYPE":"0","SITE":"AFETR","MEAN_ELEMENT_THEORY":"SGP4","RCS_SIZE":"LARGE","MEAN_MOTION_DOT":"-0.00023389","REF_FRAME":"TEME","NORAD_CAT_ID":"48681","BSTAR":"-0.00155590000000","ELEMENT_SET_NO":"999","TLE_LINE2":"2 48681  53.0536  33.5775 0001611  83.2253 154.0175 15.06412653  3608","CENTER_NAME":"EARTH","LAUNCH_DATE":"2021-05-26","MEAN_MOTION":"15.06412653","GP_ID":"200625871","REV_AT_EPOCH":"360","SEMIMAJOR_AXIS":"6925.310","COUNTRY_CODE":"US","DECAY_DATE":null,"MEAN_MOTION_DDOT":"0.0000000000000","ARG_OF_PERICENTER":"83.2253","OBJECT_TYPE":"PAYLOAD","EPOCH":"2022-04-06T22:00:00.999936","MEAN_ANOMALY":"154.0175","PERIAPSIS":"546.059","RA_OF_ASC_NODE":"33.5775","INCLINATION":"53.0536","OBJECT_ID":"2021-044AV","FILE":"3391320","CLASSIFICATION_TYPE":"U","PERIOD":"95.591","APOAPSIS":"548.290","TIME_SYSTEM":"UTC","TLE_LINE1":"1 48681U 21044AV  22096.91667824 -.00023389  00000-0 -15559-2 0  9994","OBJECT_NAME":"STARLINK-2725","ECCENTRICITY":"0.00016110"},{"MEAN_MOTION":"15.06401243","GP_ID":"200626621","REV_AT_EPOCH":"360","SEMIMAJOR_AXIS":"6925.345","COUNTRY_CODE":"US","DECAY_DATE":null,"EPHEMERIS_TYPE":"0","SITE":"AFETR","MEAN_ELEMENT_THEORY":"SGP4","RCS_SIZE":"LARGE","MEAN_MOTION_DOT":"-0.00003307","NORAD_CAT_ID":"48682","REF_FRAME":"TEME","BSTAR":"-0.00020321000000","ELEMENT_SET_NO":"999","TLE_LINE2":"2 48682  53.0573  23.5830 0001642  62.8626 149.4013 15.06401243  3604","CENTER_NAME":"EARTH","LAUNCH_DATE":"2021-05-26","PERIOD":"95.592","APOAPSIS":"548.347","TIME_SYSTEM":"UTC","TLE_LINE1":"1 48682U 21044AW  22096.91667824 -.00003307  00000-0 -20321-3 0  9997","OBJECT_NAME":"STARLINK-2743","ECCENTRICITY":"0.00016420","ARG_OF_PERICENTER":"62.8626","MEAN_MOTION_DDOT":"0.0000000000000","OBJECT_TYPE":"PAYLOAD","EPOCH":"2022-04-06T22:00:00.999936","PERIAPSIS":"546.073","MEAN_ANOMALY":"149.4013","RA_OF_ASC_NODE":"23.5830","INCLINATION":"53.0573","OBJECT_ID":"2021-044AW","FILE":"3391320","CLASSIFICATION_TYPE":"U"},{"ELEMENT_SET_NO":"999","TLE_LINE2":"2 48683  53.0553  23.5975 0001406  74.1054 298.1594 15.06405113  3619","CENTER_NAME":"EARTH","LAUNCH_DATE":"2021-05-26","NORAD_CAT_ID":"48683","REF_FRAME":"TEME","BSTAR":"-0.00042393000000","MEAN_MOTION_DOT":"-0.00006591","SITE":"AFETR","EPHEMERIS_TYPE":"0","MEAN_ELEMENT_THEORY":"SGP4","RCS_SIZE":"LARGE","COUNTRY_CODE":"US","DECAY_DATE":null,"SEMIMAJOR_AXIS":"6925.333","GP_ID":"200626873","REV_AT_EPOCH":"361","MEAN_MOTION":"15.06405113","OBJECT_ID":"2021-044AX","FILE":"3391320","CLASSIFICATION_TYPE":"U","MEAN_ANOMALY":"298.1594","PERIAPSIS":"546.224","RA_OF_ASC_NODE":"23.5975","INCLINATION":"53.0553","OBJECT_TYPE":"PAYLOAD","EPOCH":"2022-04-06T22:00:00.999936","ARG_OF_PERICENTER":"74.1054","MEAN_MOTION_DDOT":"0.0000000000000","OBJECT_NAME":"STARLINK-2756","ECCENTRICITY":"0.00014060","TLE_LINE1":"1 48683U 21044AX  22096.91667824 -.00006591  00000-0 -42393-3 0  9999","PERIOD":"95.592","APOAPSIS":"548.172","TIME_SYSTEM":"UTC"},{"SITE":"AFETR","EPHEMERIS_TYPE":"0","MEAN_ELEMENT_THEORY":"SGP4","RCS_SIZE":"LARGE","MEAN_MOTION_DOT":"0.00000539","NORAD_CAT_ID":"48684","REF_FRAME":"TEME","BSTAR":"0.00005507300000","ELEMENT_SET_NO":"999","TLE_LINE2":"2 48684  53.0571  38.9519 0001477  59.6057 300.5078 15.06393131 48231","CENTER_NAME":"EARTH","LAUNCH_DATE":"2021-05-26","MEAN_MOTION":"15.06393131","GP_ID":"200627623","REV_AT_EPOCH":"4823","SEMIMAJOR_AXIS":"6925.370","COUNTRY_CODE":"US","DECAY_DATE":null,"MEAN_MOTION_DDOT":"0.0000000000000","ARG_OF_PERICENTER":"59.6057","OBJECT_TYPE":"PAYLOAD","EPOCH":"2022-04-06T20:06:00.093312","MEAN_ANOMALY":"300.5078","PERIAPSIS":"546.212","RA_OF_ASC_NODE":"38.9519","INCLINATION":"53.0571","OBJECT_ID":"2021-044AY","CLASSIFICATION_TYPE":"U","FILE":"3391320","PERIOD":"95.593","APOAPSIS":"548.257","TIME_SYSTEM":"UTC","TLE_LINE1":"1 48684U 21044AY  22096.83750108  .00000539  00000-0  55073-4 0  9993","OBJECT_NAME":"STARLINK-2741","ECCENTRICITY":"0.00014770"},{"ECCENTRICITY":"0.00013810","OBJECT_NAME":"STARLINK-2751","TLE_LINE1":"1 48685U 21044AZ  22096.91667824 -.00004144  00000-0 -25940-3 0  9992","TIME_SYSTEM":"UTC","APOAPSIS":"548.128","PERIOD":"95.591","FILE":"3391320","CLASSIFICATION_TYPE":"U","OBJECT_ID":"2021-044AZ","INCLINATION":"53.0569","RA_OF_ASC_NODE":"23.5799","MEAN_ANOMALY":"107.4538","PERIAPSIS":"546.215","EPOCH":"2022-04-06T22:00:00.999936","OBJECT_TYPE":"PAYLOAD","ARG_OF_PERICENTER":"84.7947","MEAN_MOTION_DDOT":"0.0000000000000","DECAY_DATE":null,"COUNTRY_CODE":"US","SEMIMAJOR_AXIS":"6925.307","REV_AT_EPOCH":"360","GP_ID":"200626371","MEAN_MOTION":"15.06413655","LAUNCH_DATE":"2021-05-26","CENTER_NAME":"EARTH","TLE_LINE2":"2 48685  53.0569  23.5799 0001381  84.7947 107.4538 15.06413655  3601","ELEMENT_SET_NO":"999","BSTAR":"-0.00025940000000","NORAD_CAT_ID":"48685","REF_FRAME":"TEME","MEAN_MOTION_DOT":"-0.00004144","RCS_SIZE":"LARGE","MEAN_ELEMENT_THEORY":"SGP4","EPHEMERIS_TYPE":"0","SITE":"AFETR"},{"MEAN_MOTION":"15.06408670","GP_ID":"200595701","REV_AT_EPOCH":"4928","SEMIMAJOR_AXIS":"6925.322","COUNTRY_CODE":"US","DECAY_DATE":null,"MEAN_ELEMENT_THEORY":"SGP4","EPHEMERIS_TYPE":"0","SITE":"AFETR","RCS_SIZE":"LARGE","MEAN_MOTION_DOT":"-0.00004289","NORAD_CAT_ID":"48686","REF_FRAME":"TEME","BSTAR":"-0.00026913000000","TLE_LINE2":"2 48686  53.0564  28.5844 0001757  65.4220 279.2974 15.06408670 49287","ELEMENT_SET_NO":"999","LAUNCH_DATE":"2021-05-26","CENTER_NAME":"EARTH","APOAPSIS":"548.404","PERIOD":"95.592","TIME_SYSTEM":"UTC","TLE_LINE1":"1 48686U 21044BA  22096.91667824 -.00004289  00000-0 -26913-3 0  9994","OBJECT_NAME":"STARLINK-2629","ECCENTRICITY":"0.00017570","ARG_OF_PERICENTER":"65.4220","MEAN_MOTION_DDOT":"0.0000000000000","EPOCH":"2022-04-06T22:00:00.999936","OBJECT_TYPE":"PAYLOAD","RA_OF_ASC_NODE":"28.5844","MEAN_ANOMALY":"279.2974","PERIAPSIS":"545.970","INCLINATION":"53.0564","OBJECT_ID":"2021-044BA","CLASSIFICATION_TYPE":"U","FILE":"3390979"},{"COUNTRY_CODE":"US","DECAY_DATE":null,"SEMIMAJOR_AXIS":"6925.287","GP_ID":"200627373","REV_AT_EPOCH":"359","MEAN_MOTION":"15.06420237","ELEMENT_SET_NO":"999","TLE_LINE2":"2 48687  53.0557  18.5965 0001691  68.8087 265.7552 15.06420237  3597","CENTER_NAME":"EARTH","LAUNCH_DATE":"2021-05-26","NORAD_CAT_ID":"48687","REF_FRAME":"TEME","BSTAR":"-0.00041055000000","MEAN_MOTION_DOT":"-0.00006395","SITE":"AFETR","EPHEMERIS_TYPE":"0","MEAN_ELEMENT_THEORY":"SGP4","RCS_SIZE":"LARGE","OBJECT_NAME":"STARLINK-2627","ECCENTRICITY":"0.00016910","TLE_LINE1":"1 48687U 21044BB  22096.91667824 -.00006395  00000-0 -41055-3 0  9999","PERIOD":"95.591","APOAPSIS":"548.323","TIME_SYSTEM":"UTC","OBJECT_ID":"2021-044BB","FILE":"3391320","CLASSIFICATION_TYPE":"U","MEAN_ANOMALY":"265.7552","PERIAPSIS":"545.980","RA_OF_ASC_NODE":"18.5965","INCLINATION":"53.0557","OBJECT_TYPE":"PAYLOAD","EPOCH":"2022-04-06T22:00:00.999936","ARG_OF_PERICENTER":"68.8087","MEAN_MOTION_DDOT":"0.0000000000000"}];
